[{"COMMENT":"GENERATED VIA SPACETRACK.ORG API","ORIGINATOR":"18 SPCS","NORAD_CAT_ID":"45120","OBJECT_NAME":"VPM","OBJECT_TYPE":"PAYLOAD","CLASSIFICATION_TYPE":"U","INTLDES":"19071K","EPOCH":"2020-10-05 21:42:13","EPOCH_MICROSECONDS":"237632","MEAN_MOTION":"15.34745357","ECCENTRICITY":"0.0012286","INCLINATION":"51.6419","RA_OF_ASC_NODE":"188.6902","ARG_OF_PERICENTER":"92.2082","MEAN_ANOMALY":"268.0307","EPHEMERIS_TYPE":"0","ELEMENT_SET_NO":"999","REV_AT_EPOCH":"3797","BSTAR":"0.00012881","MEAN_MOTION_DOT":"0.00004031","MEAN_MOTION_DDOT":"0","FILE":"2843543","TLE_LINE0":"0 VPM","TLE_LINE1":"1 45120U 19071K   20279.90431988 +.00004031 +00000-0 +12881-3 0  9993","TLE_LINE2":"2 45120 051.6419 188.6902 0012286 092.2082 268.0307 15.34745357037972","OBJECT_ID":"2019-071K","OBJECT_NUMBER":"45120","SEMIMAJOR_AXIS":"6839.813","PERIOD":"93.826","APOGEE":"470.082","PERIGEE":"453.275","DECAYED":"0"},{"COMMENT":"GENERATED VIA SPACETRACK.ORG API","ORIGINATOR":"18 SPCS","NORAD_CAT_ID":"45120","OBJECT_NAME":"VPM","OBJECT_TYPE":"PAYLOAD","CLASSIFICATION_TYPE":"U","INTLDES":"19071K","EPOCH":"2020-10-06 00:49:45","EPOCH_MICROSECONDS":"101856","MEAN_MOTION":"15.34746503","ECCENTRICITY":"0.0012287","INCLINATION":"51.6419","RA_OF_ASC_NODE":"188.0599","ARG_OF_PERICENTER":"92.6193","MEAN_ANOMALY":"267.6197","EPHEMERIS_TYPE":"0","ELEMENT_SET_NO":"999","REV_AT_EPOCH":"3799","BSTAR":"0.00013078","MEAN_MOTION_DOT":"0.00004099","MEAN_MOTION_DDOT":"0","FILE":"2843877","TLE_LINE0":"0 VPM","TLE_LINE1":"1 45120U 19071K   20280.03454979  .00004099  00000-0  13078-3 0  9997","TLE_LINE2":"2 45120  51.6419 188.0599 0012287  92.6193 267.6197 15.34746503 37994","OBJECT_ID":"2019-071K","OBJECT_NUMBER":"45120","SEMIMAJOR_AXIS":"6839.810","PERIOD":"93.826","APOGEE":"470.079","PERIGEE":"453.271","DECAYED":"0"},{"COMMENT":"GENERATED VIA SPACETRACK.ORG API","ORIGINATOR":"18 SPCS","NORAD_CAT_ID":"45120","OBJECT_NAME":"VPM","OBJECT_TYPE":"PAYLOAD","CLASSIFICATION_TYPE":"U","INTLDES":"19071K","EPOCH":"2020-10-06 03:57:16","EPOCH_MICROSECONDS":"908192","MEAN_MOTION":"15.34750614","ECCENTRICITY":"0.0012289","INCLINATION":"51.6418","RA_OF_ASC_NODE":"187.4295","ARG_OF_PERICENTER":"93.0539","MEAN_ANOMALY":"267.185","EPHEMERIS_TYPE":"0","ELEMENT_SET_NO":"999","REV_AT_EPOCH":"3801","BSTAR":"0.0001648","MEAN_MOTION_DOT":"0.00005267","MEAN_MOTION_DDOT":"0","FILE":"2844326","TLE_LINE0":"0 VPM","TLE_LINE1":"1 45120U 19071K   20280.16477903 +.00005267 +00000-0 +16480-3 0  9991","TLE_LINE2":"2 45120 051.6418 187.4295 0012289 093.0539 267.1850 15.34750614038013","OBJECT_ID":"2019-071K","OBJECT_NUMBER":"45120","SEMIMAJOR_AXIS":"6839.798","PERIOD":"93.826","APOGEE":"470.068","PERIGEE":"453.257","DECAYED":"0"},{"COMMENT":"GENERATED VIA SPACETRACK.ORG API","ORIGINATOR":"18 SPCS","NORAD_CAT_ID":"45120","OBJECT_NAME":"VPM","OBJECT_TYPE":"PAYLOAD","CLASSIFICATION_TYPE":"U","INTLDES":"19071K","EPOCH":"2020-10-06 21:08:41","EPOCH_MICROSECONDS":"823168","MEAN_MOTION":"15.34757466","ECCENTRICITY":"0.0012265","INCLINATION":"51.6418","RA_OF_ASC_NODE":"183.9619","ARG_OF_PERICENTER":"95.5724","MEAN_ANOMALY":"264.6658","EPHEMERIS_TYPE":"0","ELEMENT_SET_NO":"999","REV_AT_EPOCH":"3812","BSTAR":"0.00016245","MEAN_MOTION_DOT":"0.00005188","MEAN_MOTION_DDOT":"0","FILE":"2844573","TLE_LINE0":"0 VPM","TLE_LINE1":"1 45120U 19071K   20280.88103962 +.00005188 +00000-0 +16245-3 0  9992","TLE_LINE2":"2 45120 051.6418 183.9619 0012265 095.5724 264.6658 15.34757466038123","OBJECT_ID":"2019-071K","OBJECT_NUMBER":"45120","SEMIMAJOR_AXIS":"6839.777","PERIOD":"93.825","APOGEE":"470.031","PERIGEE":"453.253","DECAYED":"0"},{"COMMENT":"GENERATED VIA SPACETRACK.ORG API","ORIGINATOR":"18 SPCS","NORAD_CAT_ID":"45120","OBJECT_NAME":"VPM","OBJECT_TYPE":"PAYLOAD","CLASSIFICATION_TYPE":"U","INTLDES":"19071K","EPOCH":"2020-10-07 03:23:45","EPOCH_MICROSECONDS":"331296","MEAN_MOTION":"15.34760116","ECCENTRICITY":"0.0012271","INCLINATION":"51.6418","RA_OF_ASC_NODE":"182.7011","ARG_OF_PERICENTER":"96.4007","MEAN_ANOMALY":"263.8373","EPHEMERIS_TYPE":"0","ELEMENT_SET_NO":"999","REV_AT_EPOCH":"3816","BSTAR":"0.00015968","MEAN_MOTION_DOT":"0.00005093","MEAN_MOTION_DDOT":"0","FILE":"2844821","TLE_LINE0":"0 VPM","TLE_LINE1":"1 45120U 19071K   20281.14149689  .00005093  00000-0  15968-3 0  9994","TLE_LINE2":"2 45120  51.6418 182.7011 0012271  96.4007 263.8373 15.34760116 38162","OBJECT_ID":"2019-071K","OBJECT_NUMBER":"45120","SEMIMAJOR_AXIS":"6839.770","PERIOD":"93.825","APOGEE":"470.028","PERIGEE":"453.242","DECAYED":"0"},{"COMMENT":"GENERATED VIA SPACETRACK.ORG API","ORIGINATOR":"18 SPCS","NORAD_CAT_ID":"45120","OBJECT_NAME":"VPM","OBJECT_TYPE":"PAYLOAD","CLASSIFICATION_TYPE":"U","INTLDES":"19071K","EPOCH":"2020-10-07 04:57:31","EPOCH_MICROSECONDS":"202496","MEAN_MOTION":"15.34760883","ECCENTRICITY":"0.0012269","INCLINATION":"51.6418","RA_OF_ASC_NODE":"182.3859","ARG_OF_PERICENTER":"96.6218","MEAN_ANOMALY":"263.6161","EPHEMERIS_TYPE":"0","ELEMENT_SET_NO":"999","REV_AT_EPOCH":"3817","BSTAR":"0.00016","MEAN_MOTION_DOT":"0.00005104","MEAN_MOTION_DDOT":"0","FILE":"2845327","TLE_LINE0":"0 VPM","TLE_LINE1":"1 45120U 19071K   20281.20661114 +.00005104 +00000-0 +16000-3 0  9994","TLE_LINE2":"2 45120 051.6418 182.3859 0012269 096.6218 263.6161 15.34760883038176","OBJECT_ID":"2019-071K","OBJECT_NUMBER":"45120","SEMIMAJOR_AXIS":"6839.767","PERIOD":"93.825","APOGEE":"470.024","PERIGEE":"453.241","DECAYED":"0"},{"COMMENT":"GENERATED VIA SPACETRACK.ORG API","ORIGINATOR":"18 SPCS","NORAD_CAT_ID":"45120","OBJECT_NAME":"VPM","OBJECT_TYPE":"PAYLOAD","CLASSIFICATION_TYPE":"U","INTLDES":"19071K","EPOCH":"2020-10-07 22:08:55","EPOCH_MICROSECONDS":"605120","MEAN_MOTION":"15.34768658","ECCENTRICITY":"0.0012252","INCLINATION":"51.6419","RA_OF_ASC_NODE":"178.9183","ARG_OF_PERICENTER":"99.1063","MEAN_ANOMALY":"261.1306","EPHEMERIS_TYPE":"0","ELEMENT_SET_NO":"999","REV_AT_EPOCH":"3828","BSTAR":"0.00015457","MEAN_MOTION_DOT":"0.00004919","MEAN_MOTION_DDOT":"0","FILE":"2845626","TLE_LINE0":"0 VPM","TLE_LINE1":"1 45120U 19071K   20281.92286580 +.00004919 +00000-0 +15457-3 0  9991","TLE_LINE2":"2 45120 051.6419 178.9183 0012252 099.1063 261.1306 15.34768658038280","OBJECT_ID":"2019-071K","OBJECT_NUMBER":"45120","SEMIMAJOR_AXIS":"6839.744","PERIOD":"93.825","APOGEE":"469.989","PERIGEE":"453.229","DECAYED":"0"},{"COMMENT":"GENERATED VIA SPACETRACK.ORG API","ORIGINATOR":"18 SPCS","NORAD_CAT_ID":"45120","OBJECT_NAME":"VPM","OBJECT_TYPE":"PAYLOAD","CLASSIFICATION_TYPE":"U","INTLDES":"19071K","EPOCH":"2020-10-08 04:23:58","EPOCH_MICROSECONDS":"949952","MEAN_MOTION":"15.34770978","ECCENTRICITY":"0.0012262","INCLINATION":"51.6419","RA_OF_ASC_NODE":"177.6574","ARG_OF_PERICENTER":"99.9488","MEAN_ANOMALY":"260.2879","EPHEMERIS_TYPE":"0","ELEMENT_SET_NO":"999","REV_AT_EPOCH":"3832","BSTAR":"0.00014547","MEAN_MOTION_DOT":"0.00004607","MEAN_MOTION_DDOT":"0","FILE":"2846259","TLE_LINE0":"0 VPM","TLE_LINE1":"1 45120U 19071K   20282.18332118  .00004607  00000-0  14547-3 0  9992","TLE_LINE2":"2 45120  51.6419 177.6574 0012262  99.9488 260.2879 15.34770978 38328","OBJECT_ID":"2019-071K","OBJECT_NUMBER":"45120","SEMIMAJOR_AXIS":"6839.737","PERIOD":"93.825","APOGEE":"469.989","PERIGEE":"453.215","DECAYED":"0"},{"COMMENT":"GENERATED VIA SPACETRACK.ORG API","ORIGINATOR":"18 SPCS","NORAD_CAT_ID":"45120","OBJECT_NAME":"VPM","OBJECT_TYPE":"PAYLOAD","CLASSIFICATION_TYPE":"U","INTLDES":"19071K","EPOCH":"2020-10-08 21:35:22","EPOCH_MICROSECONDS":"964640","MEAN_MOTION":"15.34776779","ECCENTRICITY":"0.0012262","INCLINATION":"51.642","RA_OF_ASC_NODE":"174.1897","ARG_OF_PERICENTER":"102.3965","MEAN_ANOMALY":"257.839","EPHEMERIS_TYPE":"0","ELEMENT_SET_NO":"999","REV_AT_EPOCH":"3843","BSTAR":"0.00012015","MEAN_MOTION_DOT":"0.00003738","MEAN_MOTION_DDOT":"0","FILE":"2846764","TLE_LINE0":"0 VPM","TLE_LINE1":"1 45120U 19071K   20282.89957135 +.00003738 +00000-0 +12015-3 0  9994","TLE_LINE2":"2 45120 051.6420 174.1897 0012262 102.3965 257.8390 15.34776779038436","OBJECT_ID":"2019-071K","OBJECT_NUMBER":"45120","SEMIMAJOR_AXIS":"6839.720","PERIOD":"93.824","APOGEE":"469.972","PERIGEE":"453.198","DECAYED":"0"},{"COMMENT":"GENERATED VIA SPACETRACK.ORG API","ORIGINATOR":"18 SPCS","NORAD_CAT_ID":"45120","OBJECT_NAME":"VPM","OBJECT_TYPE":"PAYLOAD","CLASSIFICATION_TYPE":"U","INTLDES":"19071K","EPOCH":"2020-10-09 10:05:29","EPOCH_MICROSECONDS":"345856","MEAN_MOTION":"15.34781172","ECCENTRICITY":"0.0012267","INCLINATION":"51.6421","RA_OF_ASC_NODE":"171.668","ARG_OF_PERICENTER":"104.1193","MEAN_ANOMALY":"256.1154","EPHEMERIS_TYPE":"0","ELEMENT_SET_NO":"999","REV_AT_EPOCH":"3851","BSTAR":"0.00010866","MEAN_MOTION_DOT":"0.00003344","MEAN_MOTION_DDOT":"0","FILE":"2847276","TLE_LINE0":"0 VPM","TLE_LINE1":"1 45120U 19071K   20283.42047854  .00003344  00000-0  10866-3 0  9997","TLE_LINE2":"2 45120  51.6421 171.6680 0012267 104.1193 256.1154 15.34781172 38519","OBJECT_ID":"2019-071K","OBJECT_NUMBER":"45120","SEMIMAJOR_AXIS":"6839.707","PERIOD":"93.824","APOGEE":"469.962","PERIGEE":"453.182","DECAYED":"0"},{"COMMENT":"GENERATED VIA SPACETRACK.ORG API","ORIGINATOR":"18 SPCS","NORAD_CAT_ID":"45120","OBJECT_NAME":"VPM","OBJECT_TYPE":"PAYLOAD","CLASSIFICATION_TYPE":"U","INTLDES":"19071K","EPOCH":"2020-10-10 03:16:52","EPOCH_MICROSECONDS":"992480","MEAN_MOTION":"15.34785316","ECCENTRICITY":"0.0012285","INCLINATION":"51.6421","RA_OF_ASC_NODE":"168.2005","ARG_OF_PERICENTER":"106.5775","MEAN_ANOMALY":"253.6557","EPHEMERIS_TYPE":"0","ELEMENT_SET_NO":"999","REV_AT_EPOCH":"3862","BSTAR":"0.000087136","MEAN_MOTION_DOT":"0.00002605","MEAN_MOTION_DDOT":"0","FILE":"2848262","TLE_LINE0":"0 VPM","TLE_LINE1":"1 45120U 19071K   20284.13672445 +.00002605 +00000-0 +87136-4 0  9990","TLE_LINE2":"2 45120 051.6421 168.2005 0012285 106.5775 253.6557 15.34785316038629","OBJECT_ID":"2019-071K","OBJECT_NUMBER":"45120","SEMIMAJOR_AXIS":"6839.695","PERIOD":"93.824","APOGEE":"469.962","PERIGEE":"453.157","DECAYED":"0"}]